NORAD_CAT_ID,OBJECT_NAME,OBJECT_TYPE,EPOCH,MEAN_MOTION,ECCENTRICITY,INCLINATION,RA_OF_ASC_NODE,ARG_OF_PERICENTER,MEAN_ANOMALY,BSTAR,MEAN_MOTION_DOT,MEAN_MOTION_DDOT,TLE_LINE0,TLE_LINE1,TLE_LINE2,SEMIMAJOR_AXIS,PERIOD,APOGEE,PERIGEE,DECAYED
51886.0,STARLINK-3565,PAYLOAD,2023-09-13 18:01:24,15.08849705,0.0001275,53.2167,115.0127,85.6762,274.4376,0.0001078,1.429e-05,0.0,0 STARLINK-3565,1 51886U 22022AL  23256.75097437  .00001429  00000-0  10780-3 0  9991,2 51886  53.2167 115.0127 0001275  85.6762 274.4376 15.08849705 86183,6917.851,95.437,540.598,538.834,0.0
51886.0,STARLINK-3565,PAYLOAD,2023-09-13 21:12:10,15.08851727,0.0001286,53.2178,114.4164,92.7834,267.3305,0.00012587,1.717e-05,0.0,0 STARLINK-3565,1 51886U 22022AL  23256.88345154  .00001717  00000-0  12587-3 0  9994,2 51886  53.2178 114.4164 0001286  92.7834 267.3305 15.08851727 86203,6917.845,95.437,540.599,538.82,0.0
51886.0,STARLINK-3565,PAYLOAD,2023-09-14 00:22:56,15.08860082,0.0001328,53.2179,113.8224,90.7626,269.3518,6.0873e-05,6.82e-06,0.0,0 STARLINK-3565,1 51886U 22022AL  23257.01592807  .00000682  00000-0  60873-4 0  9991,2 51886  53.2179 113.8224 0001328  90.7626 269.3518 15.08860082 86222,6917.819,95.436,540.603,538.765,0.0
51886.0,STARLINK-3565,PAYLOAD,2023-09-14 21:02:59,15.08829065,0.000131,53.2177,109.9558,91.9982,268.116,-8.5242e-05,-1.644e-05,0.0,0 STARLINK-3565,1 51886U 22022AL  23257.87707530 -.00001644  00000-0 -85242-4 0  9994,2 51886  53.2177 109.9558 0001310  91.9982 268.1160 15.08829065 86355,6917.914,95.438,540.685,538.873,0.0
51886.0,STARLINK-3565,PAYLOAD,2023-09-15 00:13:45,15.08828486,0.0001326,53.2178,109.3616,91.9195,268.1949,-8.6876e-05,-1.67e-05,0.0,0 STARLINK-3565,1 51886U 22022AL  23258.00955663 -.00001670  00000-0 -86876-4 0  9995,2 51886  53.2178 109.3616 0001326  91.9195 268.1949 15.08828486 86371,6917.916,95.438,540.698,538.863,0.0
51886.0,STARLINK-3565,PAYLOAD,2023-09-15 17:42:59,15.08842766,0.0001233,53.2173,106.0921,91.8259,268.2875,-2.5243e-05,-6.9e-06,0.0,0 STARLINK-3565,1 51886U 22022AL  23258.73818765 -.00000690  00000-0 -25243-4 0  9998,2 51886  53.2173 106.0921 0001233  91.8259 268.2875 15.08842766 86484,6917.872,95.437,540.59,538.884,0.0
51886.0,STARLINK-3565,PAYLOAD,2023-09-16 06:26:04,15.08846586,0.0001261,53.217,103.7142,91.269,268.8447,3.2599e-06,-2.36e-06,0.0,0 STARLINK-3565,1 51886U 22022AL  23259.26810384 -.00000236  00000-0  32599-5 0  9994,2 51886  53.2170 103.7142 0001261  91.2690 268.8447 15.08846586 86568,6917.86,95.437,540.598,538.853,0.0
51886.0,STARLINK-3565,PAYLOAD,2023-09-16 17:33:46,15.08830493,0.0001368,53.2173,101.633,96.392,263.7228,0.00017164,2.444e-05,0.0,0 STARLINK-3565,1 51886U 22022AL  23259.73179315  .00002444  00000-0  17164-3 0  9999,2 51886  53.2173 101.6330 0001368  96.3920 263.7228 15.08830493 86636,6917.909,95.438,540.721,538.828,0.0
51886.0,STARLINK-3565,PAYLOAD,2023-09-16 23:55:18,15.08845947,0.0001371,53.2168,100.443,89.5579,270.5571,0.00029148,4.355e-05,0.0,0 STARLINK-3565,1 51886U 22022AL  23259.99674188  .00004355  00000-0  29148-3 0  9993,2 51886  53.2168 100.4430 0001371  89.5579 270.5571 15.08845947 86677,6917.862,95.437,540.676,538.779,0.0
51886.0,STARLINK-3565,PAYLOAD,2023-09-17 17:24:33,15.08842737,0.000133,53.2167,97.1727,92.6649,267.4495,1.6989e-05,-1.8e-07,0.0,0 STARLINK-3565,1 51886U 22022AL  23260.72539216 -.00000018  00000-0  16989-4 0  9991,2 51886  53.2167  97.1727 0001330  92.6649 267.4495 15.08842737 86781,6917.872,95.437,540.657,538.817,0.0
51886.0,STARLINK-3565,PAYLOAD,2023-09-18 06:07:38,15.08842365,0.0001392,53.2166,94.7916,90.9421,269.1731,4.0862e-05,3.62e-06,0.0,0 STARLINK-3565,1 51886U 22022AL  23261.25531051  .00000362  00000-0  40862-4 0  9997,2 51886  53.2166  94.7916 0001392  90.9421 269.1731 15.08842365 86868,6917.873,95.437,540.701,538.775,0.0
51886.0,STARLINK-3565,PAYLOAD,2023-09-18 20:26:06,15.08853914,0.0001428,53.2169,92.1165,112.8741,247.2402,8.0083e-05,9.87e-06,0.0,0 STARLINK-3565,1 51886U 22022AL  23261.85146156  .00000987  00000-0  80083-4 0  9993,2 51886  53.2169  92.1165 0001428 112.8741 247.2402 15.08853914 86952,6917.838,95.437,540.691,538.715,0.0
51886.0,STARLINK-3565,PAYLOAD,2023-09-18 23:36:52,15.08851399,0.0001482,53.2171,91.5198,106.3782,253.7373,5.3745e-05,5.68e-06,0.0,0 STARLINK-3565,1 51886U 22022AL  23261.98394338  .00000568  00000-0  53745-4 0  9994,2 51886  53.2171  91.5198 0001482 106.3782 253.7373 15.08851399 86973,6917.846,95.437,540.736,538.685,0.0
51886.0,STARLINK-3565,PAYLOAD,2023-09-19 18:41:30,15.08844654,0.0001463,53.216,87.9515,93.3194,266.7966,7.8524e-05,9.62e-06,0.0,0 STARLINK-3565,1 51886U 22022AL  23262.77882605  .00000962  00000-0  78524-4 0  9991,2 51886  53.2160  87.9515 0001463  93.3194 266.7966 15.08844654 87096,6917.866,95.437,540.743,538.719,0.0
51886.0,STARLINK-3565,PAYLOAD,2023-09-20 12:10:45,15.08830358,0.000114,53.217,84.6802,90.9656,269.1467,-4.7586e-05,-1.045e-05,0.0,0 STARLINK-3565,1 51886U 22022AL  23263.50747476 -.00001045  00000-0 -47586-4 0  9998,2 51886  53.2170  84.6802 0001140  90.9656 269.1467 15.08830358 87200,6917.91,95.438,540.564,538.986,0.0
51886.0,STARLINK-3565,PAYLOAD,2023-09-20 18:32:18,15.08836194,0.0001413,53.2168,83.4923,92.8259,267.2895,-4.3347e-05,-9.78e-06,0.0,0 STARLINK-3565,1 51886U 22022AL  23263.77243269 -.00000978  00000-0 -43347-4 0  9993,2 51886  53.2168  83.4923 0001413  92.8259 267.2895 15.08836194 87243,6917.892,95.438,540.735,538.78,0.0
51886.0,STARLINK-3565,PAYLOAD,2023-09-21 12:01:32,15.08836188,0.0001406,53.2171,80.2219,91.8091,268.3062,0.00010856,1.44e-05,0.0,0 STARLINK-3565,1 51886U 22022AL  23264.50107611  .00001440  00000-0  10856-3 0  9996,2 51886  53.2171  80.2219 0001406  91.8091 268.3062 15.08836188 87358,6917.892,95.438,540.73,538.784,0.0
51886.0,STARLINK-3565,PAYLOAD,2023-09-21 18:23:05,15.088445,0.000124,53.2172,79.0315,83.7937,276.3196,0.0001202,1.626e-05,0.0,0 STARLINK-3565,1 51886U 22022AL  23264.76603215  .00001626  00000-0  12020-3 0  9996,2 51886  53.2172  79.0315 0001240  83.7937 276.3196 15.08844500 87395,6917.867,95.437,540.589,538.874,0.0
51886.0,STARLINK-3565,PAYLOAD,2023-09-22 11:52:19,15.08841076,0.0001097,53.2164,75.7615,82.6447,277.467,0.00021349,3.112e-05,0.0,0 STARLINK-3565,1 51886U 22022AL  23265.49467528  .00003112  00000-0  21349-3 0  9998,2 51886  53.2164  75.7615 0001097  82.6447 277.4670 15.08841076 87503,6917.877,95.437,540.501,538.983,0.0
51886.0,STARLINK-3565,PAYLOAD,2023-09-22 18:13:52,15.08846752,0.000127,53.2166,74.5712,88.078,272.0357,0.00023695,3.486e-05,0.0,0 STARLINK-3565,1 51886U 22022AL  23265.75963211  .00003486  00000-0  23695-3 0  9997,2 51886  53.2166  74.5712 0001270  88.0780 272.0357 15.08846752 87546,6917.86,95.437,540.603,538.846,0.0
51886.0,STARLINK-3565,PAYLOAD,2023-09-23 11:43:07,15.0883615,0.0001419,53.217,71.3006,88.7379,271.3776,-3.0257e-05,-7.69e-06,0.0,0 STARLINK-3565,1 51886U 22022AL  23266.48827665 -.00000769  00000-0 -30257-4 0  9996,2 51886  53.2170  71.3006 0001419  88.7379 271.3776 15.08836150 87658,6917.892,95.438,540.739,538.776,0.0
51886.0,STARLINK-3565,PAYLOAD,2023-09-24 09:58:30,15.08842555,0.0001449,53.2174,67.1388,90.4683,269.6476,2.3248e-05,8.2e-07,0.0,0 STARLINK-3565,1 51886U 22022AL  23267.41563316  .00000082  00000-0  23248-4 0  9998,2 51886  53.2174  67.1388 0001449  90.4683 269.6476 15.08842555 87797,6917.873,95.437,540.74,538.735,0.0
51886.0,STARLINK-3565,PAYLOAD,2023-09-24 11:33:53,15.08841823,0.0001463,53.2176,66.8416,91.7811,268.3348,1.9451e-05,2.2e-07,0.0,0 STARLINK-3565,1 51886U 22022AL  23267.48187372  .00000022  00000-0  19451-4 0  9994,2 51886  53.2176  66.8416 0001463  91.7811 268.3348 15.08841823 87803,6917.875,95.437,540.752,538.728,0.0
51886.0,STARLINK-3565,PAYLOAD,2023-09-24 16:20:03,15.08845028,0.0001466,53.2174,65.9495,91.9729,268.1431,7.0524e-05,8.35e-06,0.0,0 STARLINK-3565,1 51886U 22022AL  23267.68059182  .00000835  00000-0  70524-4 0  9993,2 51886  53.2174  65.9495 0001466  91.9729 268.1431 15.08845028 87836,6917.865,95.437,540.744,538.716,0.0
51886.0,STARLINK-3565,PAYLOAD,2023-09-25 11:24:41,15.08835535,0.0001818,53.2201,62.3813,87.364,272.7561,6.886e-05,8.08e-06,0.0,0 STARLINK-3565,1 51886U 22022AL  23268.47547741  .00000808  00000-0  68860-4 0  9994,2 51886  53.2201  62.3813 0001818  87.3640 272.7561 15.08835535 87954,6917.894,95.438,541.017,538.501,0.0
51886.0,STARLINK-3565,PAYLOAD,2023-09-25 17:46:13,15.08839888,0.0001577,53.219,61.1913,86.0075,274.1097,9.7959e-05,1.271e-05,0.0,0 STARLINK-3565,1 51886U 22022AL  23268.74043730  .00001271  00000-0  97959-4 0  9999,2 51886  53.2190  61.1913 0001577  86.0075 274.1097 15.08839888 87998,6917.881,95.438,540.837,538.655,0.0
51886.0,STARLINK-3565,PAYLOAD,2023-09-26 09:40:05,15.08835287,0.0001387,53.2187,58.2174,89.1446,270.9705,-1.0537e-06,-3.05e-06,0.0,0 STARLINK-3565,1 51886U 22022AL  23269.40284444 -.00000305  00000-0 -10537-5 0  9999,2 51886  53.2187  58.2174 0001387  89.1446 270.9705 15.08835287 88096,6917.895,95.438,540.719,538.8,0.0
51886.0,STARLINK-3565,PAYLOAD,2023-09-26 14:26:15,15.088372,0.0001405,53.2182,57.3254,77.6759,282.4391,-1.624e-06,-3.14e-06,0.0,0 STARLINK-3565,1 51886U 22022AL  23269.60156385 -.00000314  00000-0 -16240-5 0  9990,2 51886  53.2182  57.3254 0001405  77.6759 282.4391 15.08837200 88120,6917.889,95.438,540.726,538.782,0.0
51886.0,STARLINK-3565,PAYLOAD,2023-09-26 17:37:01,15.08838305,0.0001628,53.2184,56.7305,77.3678,282.7496,3.7227e-05,3.04e-06,0.0,0 STARLINK-3565,1 51886U 22022AL  23269.73404070  .00000304  00000-0  37227-4 0  9995,2 51886  53.2184  56.7305 0001628  77.3678 282.7496 15.08838305 88144,6917.886,95.438,540.877,538.624,0.0
51886.0,STARLINK-3565,PAYLOAD,2023-09-27 09:30:52,15.08833203,0.000145,53.2177,53.7567,83.4947,276.6211,0.00012854,1.758e-05,0.0,0 STARLINK-3565,1 51886U 22022AL  23270.39644553  .00001758  00000-0  12854-3 0  9993,2 51886  53.2177  53.7567 0001450  83.4947 276.6211 15.08833203 88243,6917.901,95.438,540.769,538.763,0.0
